[{"OBJECT_NAME":"YAOGAN-32 02B","OBJECT_ID":"2021-099B","EPOCH":"2026-03-09T22:33:19.291104","MEAN_MOTION":14.64050838,"ECCENTRICITY":0.00012785,"INCLINATION":98.2293,"RA_OF_ASC_NODE":202.7352,"ARG_OF_PERICENTER":124.0127,"MEAN_ANOMALY":236.1197,"EPHEMERIS_TYPE":0,"CLASSIFICATION_TYPE":"U","NORAD_CAT_ID":49384,"ELEMENT_SET_NO":999,"REV_AT_EPOCH":23184,"BSTAR":0.000246305,"MEAN_MOTION_DOT":1.244e-5,"MEAN_MOTION_DDOT":0},{"OBJECT_NAME":"FENGYUN 1C DEB","OBJECT_ID":"1999-025JS","EPOCH":"2026-03-09T09:31:11.592480","MEAN_MOTION":14.89836418,"ECCENTRICITY":0.01602799,"INCLINATION":99.0124,"RA_OF_ASC_NODE":19.279,"ARG_OF_PERICENTER":316.4187,"MEAN_ANOMALY":42.4455,"EPHEMERIS_TYPE":0,"CLASSIFICATION_TYPE":"U","NORAD_CAT_ID":29944,"ELEMENT_SET_NO":999,"REV_AT_EPOCH":1743,"BSTAR":0.0013476123,"MEAN_MOTION_DOT":0.00016456,"MEAN_MOTION_DDOT":0}]
